QIANFAN-81              
1 63167U 25046J   25272.35122525  .00000152  00000+0  21734-3 0  9990
2 63167  88.9823 327.5651 0013473 343.8832  16.1888 13.50981288 37446
QIANFAN-82              
1 63168U 25046K   25272.31014130  .00000202  00000+0  29484-3 0  9995
2 63168  88.9823 327.6128 0011938 353.8451   6.2552 13.50969286 37429
QIANFAN-83              
1 63169U 25046L   25272.34986987  .00000237  00000+0  29218-3 0  9990
2 63169  88.9821 327.5311 0012798 341.4241  18.6447 13.61956393 37478
QIANFAN-84              
1 63170U 25046M   25272.33867400  .00000139  00000+0  19692-3 0  9995
2 63170  88.9823 327.7430 0014730 347.9261  12.1535 13.50982107 37351
QIANFAN-85              
1 63171U 25046N   25272.26077711  .00000229  00000+0  33587-3 0  9995
2 63171  88.9822 327.6230 0012235 352.5531   7.5436 13.50979606 37413
QIANFAN-86              
1 63172U 25046P   25270.04706391  .00000201  00000+0  29286-3 0  9994
2 63172  88.9828 327.7109 0010538   5.8456 354.2816 13.50978981 37198
QIANFAN-87              
1 63173U 25046Q   25272.31428847  .00000201  00000+0  29340-3 0  9995
2 63173  88.9821 327.5923 0010824 352.7288   7.3705 13.50975632 37439
QIANFAN-88              
1 63174U 25046R   25272.25667488  .00000209  00000+0  30578-3 0  9998
2 63174  88.9824 327.5509 0011510   1.0375 359.0798 13.50968915 37454
